var test_sol_data_20240408 = `
********************************************************************************
$$SOE
 2024-Apr-08 00:00,C, ,  282.610969586,      -2.747769059,    619.48,   -643.00,
 2024-Apr-08 00:05,C, ,  283.474295512,      -3.639282704,    621.79,   -640.75,
 2024-Apr-08 00:10,C, ,  284.341802939,      -4.527568222,    624.26,   -638.35,
 2024-Apr-08 00:15,C, ,  285.213907425,      -5.412404663,    626.86,   -635.79,
 2024-Apr-08 00:20,N, ,  286.091025423,      -6.293566986,    629.61,   -633.06,
 2024-Apr-08 00:25,N, ,  286.973574533,      -7.170825710,    632.50,   -630.16,
 2024-Apr-08 00:30,N, ,  287.861973712,      -8.043946582,    635.54,   -627.10,
 2024-Apr-08 00:35,N, ,  288.756643455,      -8.912690231,    638.71,   -623.86,
 2024-Apr-08 00:40,N, ,  289.658005934,      -9.776811824,    642.03,   -620.44,
 2024-Apr-08 00:45,N, ,  290.566485090,     -10.636060728,    645.48,   -616.84,
 2024-Apr-08 00:50,N, ,  291.482506682,     -11.490180162,    649.08,   -613.06,
 2024-Apr-08 00:55,A, ,  292.406498285,     -12.338906860,    652.81,   -609.08,
 2024-Apr-08 01:00,A, ,  293.338889229,     -13.181970725,    656.68,   -604.90,
 2024-Apr-08 01:05,A, ,  294.280110482,     -14.019094492,    660.68,   -600.52,
 2024-Apr-08 01:10,A, ,  295.230594466,     -14.849993396,    664.81,   -595.94,
 2024-Apr-08 01:15,A, ,  296.190774803,     -15.674374834,    669.08,   -591.14,
 2024-Apr-08 01:20,A, ,  297.161085975,     -16.491938047,    673.48,   -586.12,
 2024-Apr-08 01:25,A, ,  298.141962920,     -17.302373799,    678.00,   -580.87,
 2024-Apr-08 01:30, , ,  299.133840516,     -18.105364074,    682.65,   -575.39,
 2024-Apr-08 01:35, , ,  300.137152982,     -18.900581777,    687.43,   -569.68,
 2024-Apr-08 01:40, , ,  301.152333166,     -19.687690458,    692.32,   -563.72,
 2024-Apr-08 01:45, , ,  302.179811726,     -20.466344050,    697.33,   -557.50,
 2024-Apr-08 01:50, , ,  303.220016193,     -21.236186632,    702.45,   -551.03,
 2024-Apr-08 01:55, , ,  304.273369890,     -21.996852211,    707.69,   -544.29,
 2024-Apr-08 02:00, , ,  305.340290740,     -22.747964542,    713.02,   -537.27,
 2024-Apr-08 02:05, , ,  306.421189906,     -23.489136975,    718.46,   -529.97,
 2024-Apr-08 02:10, , ,  307.516470300,     -24.219972343,    723.99,   -522.38,
 2024-Apr-08 02:15, , ,  308.626524922,     -24.940062901,    729.62,   -514.50,
 2024-Apr-08 02:20, , ,  309.751735041,     -25.648990306,    735.32,   -506.31,
 2024-Apr-08 02:25, , ,  310.892468211,     -26.346325661,    741.10,   -497.80,
 2024-Apr-08 02:30, , ,  312.049076109,     -27.031629615,    746.95,   -488.98,
 2024-Apr-08 02:35, , ,  313.221892207,     -27.704452545,    752.85,   -479.83,
 2024-Apr-08 02:40, , ,  314.411229273,     -28.364334803,    758.81,   -470.34,
 2024-Apr-08 02:45, , ,  315.617376694,     -29.010807059,    764.81,   -460.52,
 2024-Apr-08 02:50, , ,  316.840597652,     -29.643390728,    770.84,   -450.34,
 2024-Apr-08 02:55, , ,  318.081126129,     -30.261598500,    776.89,   -439.82,
 2024-Apr-08 03:00, , ,  319.339163790,     -30.864934986,    782.95,   -428.93,
 2024-Apr-08 03:05, , ,  320.614876730,     -31.452897465,    789.01,   -417.68,
 2024-Apr-08 03:10, , ,  321.908392133,     -32.024976766,    795.05,   -406.06,
 2024-Apr-08 03:15, , ,  323.219794844,     -32.580658264,    801.06,   -394.06,
 2024-Apr-08 03:20, , ,  324.549123918,     -33.119423026,    807.02,   -381.70,
 2024-Apr-08 03:25, , ,  325.896369157,     -33.640749079,    812.92,   -368.95,
 2024-Apr-08 03:30, , ,  327.261467691,     -34.144112826,    818.75,   -355.83,
 2024-Apr-08 03:35, , ,  328.644300651,     -34.628990601,    824.48,   -342.33,
 2024-Apr-08 03:40, , ,  330.044689993,     -35.094860362,    830.10,   -328.46,
 2024-Apr-08 03:45, , ,  331.462395519,     -35.541203524,    835.60,   -314.21,
 2024-Apr-08 03:50, , ,  332.897112174,     -35.967506917,    840.94,   -299.60,
 2024-Apr-08 03:55, , ,  334.348467677,     -36.373264874,    846.12,   -284.63,
 2024-Apr-08 04:00, , ,  335.816020551,     -36.757981422,    851.12,   -269.30,
 2024-Apr-08 04:05, , ,  337.299258633,     -37.121172575,    855.92,   -253.63,
 2024-Apr-08 04:10, , ,  338.797598114,     -37.462368705,    860.50,   -237.63,
 2024-Apr-08 04:15, , ,  340.310383191,     -37.781116971,    864.84,   -221.31,
 2024-Apr-08 04:20, , ,  341.836886366,     -38.076983779,    868.92,   -204.69,
 2024-Apr-08 04:25, , ,  343.376309467,     -38.349557262,    872.73,   -187.77,
 2024-Apr-08 04:30, , ,  344.927785415,     -38.598449725,    876.25,   -170.59,
 2024-Apr-08 04:35, , ,  346.490380764,     -38.823300055,    879.46,   -153.16,
 2024-Apr-08 04:40, , ,  348.063099033,     -39.023776038,    882.35,   -135.49,
 2024-Apr-08 04:45, , ,  349.644884838,     -39.199576563,    884.90,   -117.63,
 2024-Apr-08 04:50, , ,  351.234628771,     -39.350433687,    887.11,    -99.58,
 2024-Apr-08 04:55, , ,  352.831173031,     -39.476114509,    888.97,    -81.38,
 2024-Apr-08 05:00, , ,  354.433317722,     -39.576422842,    890.45,    -63.05,
 2024-Apr-08 05:05, , ,  356.039827763,     -39.651200645,    891.56,    -44.62,
 2024-Apr-08 05:10, , ,  357.649440306,     -39.700329202,    892.29,    -26.12,
 2024-Apr-08 05:15, , ,  359.260872578,     -39.723730002,    892.64,     -7.57,
 2024-Apr-08 05:20, , ,    0.872830025,     -39.721365344,    892.60,     10.98,
 2024-Apr-08 05:25, , ,    2.484014631,     -39.693238612,    892.18,     29.52,
 2024-Apr-08 05:30, , ,    4.093133293,     -39.639394257,    891.37,     48.01,
 2024-Apr-08 05:35, , ,    5.698906123,     -39.559917452,    890.19,     66.42,
 2024-Apr-08 05:40, , ,    7.300074543,     -39.454933446,    888.63,     84.73,
 2024-Apr-08 05:45, , ,    8.895409059,     -39.324606626,    886.70,    102.91,
 2024-Apr-08 05:50, , ,   10.483716604,     -39.169139296,    884.42,    120.93,
 2024-Apr-08 05:55, , ,   12.063847342,     -38.988770198,    881.80,    138.77,
 2024-Apr-08 06:00, , ,   13.634700855,     -38.783772808,    878.84,    156.39,
 2024-Apr-08 06:05, , ,   15.195231645,     -38.554453419,    875.57,    173.79,
 2024-Apr-08 06:10, , ,   16.744453885,     -38.301149057,    871.99,    190.93,
 2024-Apr-08 06:15, , ,   18.281445416,     -38.024225252,    868.12,    207.80,
 2024-Apr-08 06:20, , ,   19.805350929,     -37.724073701,    863.98,    224.37,
 2024-Apr-08 06:25, , ,   21.315384384,     -37.401109850,    859.59,    240.64,
 2024-Apr-08 06:30, , ,   22.810830628,     -37.055770445,    854.96,    256.59,
 2024-Apr-08 06:35, , ,   24.291046297,     -36.688511047,    850.11,    272.21,
 2024-Apr-08 06:40, , ,   25.755459995,     -36.299803580,    845.07,    287.48,
 2024-Apr-08 06:45, , ,   27.203571833,     -35.890133907,    839.85,    302.39,
 2024-Apr-08 06:50, , ,   28.634952374,     -35.459999476,    834.46,    316.94,
 2024-Apr-08 06:55, , ,   30.049241053,     -35.009907036,    828.93,    331.13,
 2024-Apr-08 07:00, , ,   31.446144129,     -34.540370470,    823.28,    344.94,
 2024-Apr-08 07:05, , ,   32.825432256,     -34.051908725,    817.51,    358.38,
 2024-Apr-08 07:10, , ,   34.186937726,     -33.545043874,    811.66,    371.44,
 2024-Apr-08 07:15, , ,   35.530551453,     -33.020299309,    805.73,    384.13,
 2024-Apr-08 07:20, , ,   36.856219760,     -32.478198069,    799.74,    396.44,
 2024-Apr-08 07:25, , ,   38.163941040,     -31.919261312,    793.71,    408.37,
 2024-Apr-08 07:30, , ,   39.453762319,     -31.344006922,    787.65,    419.93,
 2024-Apr-08 07:35, , ,   40.725775796,     -30.752948261,    781.58,    431.13,
 2024-Apr-08 07:40, , ,   41.980115389,     -30.146593054,    775.50,    441.96,
 2024-Apr-08 07:45, , ,   43.216953326,     -29.525442406,    769.44,    452.44,
 2024-Apr-08 07:50, , ,   44.436496811,     -28.889989949,    763.39,    462.56,
 2024-Apr-08 07:55, , ,   45.638984797,     -28.240721108,    757.38,    472.33,
 2024-Apr-08 08:00, , ,   46.824684888,     -27.578112478,    751.41,    481.77,
 2024-Apr-08 08:05, , ,   47.993890372,     -26.902631312,    745.49,    490.87,
 2024-Apr-08 08:10, , ,   49.146917420,     -26.214735107,    739.64,    499.65,
 2024-Apr-08 08:15, , ,   50.284102447,     -25.514871278,    733.85,    508.11,
 2024-Apr-08 08:20, , ,   51.405799633,     -24.803476923,    728.14,    516.25,
 2024-Apr-08 08:25, , ,   52.512378630,     -24.080978654,    722.51,    524.10,
 2024-Apr-08 08:30, , ,   53.604222428,     -23.347792507,    716.97,    531.64,
 2024-Apr-08 08:35, , ,   54.681725401,     -22.604323910,    711.53,    538.90,
 2024-Apr-08 08:40, , ,   55.745291516,     -21.850967708,    706.19,    545.88,
 2024-Apr-08 08:45, , ,   56.795332702,     -21.088108231,    700.95,    552.59,
 2024-Apr-08 08:50, , ,   57.832267380,     -20.316119419,    695.82,    559.03,
 2024-Apr-08 08:55, , ,   58.856519138,     -19.535364972,    690.80,    565.21,
 2024-Apr-08 09:00, , ,   59.868515547,     -18.746198542,    685.90,    571.15,
 2024-Apr-08 09:05,A, ,   60.868687120,     -17.948963948,    681.13,    576.83,
 2024-Apr-08 09:10,A, ,   61.857466389,     -17.143995422,    676.47,    582.28,
 2024-Apr-08 09:15,A, ,   62.835287102,     -16.331617868,    671.94,    587.50,
 2024-Apr-08 09:20,A, ,   63.802583537,     -15.512147148,    667.53,    592.50,
 2024-Apr-08 09:25,A, ,   64.759789912,     -14.685890371,    663.26,    597.28,
 2024-Apr-08 09:30,A, ,   65.707339895,     -13.853146209,    659.12,    601.84,
 2024-Apr-08 09:35,A, ,   66.645666208,     -13.014205208,    655.11,    606.20,
 2024-Apr-08 09:40,A, ,   67.575200300,     -12.169350114,    651.23,    610.36,
 2024-Apr-08 09:45,N, ,   68.496372110,     -11.318856206,    647.49,    614.32,
 2024-Apr-08 09:50,N, ,   69.409609897,     -10.462991629,    643.89,    618.09,
 2024-Apr-08 09:55,N, ,   70.315340124,      -9.602017731,    640.43,    621.68,
 2024-Apr-08 10:00,N, ,   71.213987415,      -8.736189408,    637.10,    625.08,
 2024-Apr-08 10:05,N, ,   72.105974562,      -7.865755438,    633.91,    628.31,
